<?xml version="1.0" encoding="UTF-8"?>
<ndm xmlns:xsi="http://www.w3.org/2001/XMLSchema-instance" xsi:noNamespaceSchemaLocation="https://sanaregistry.org/r/ndmxml_unqualified/ndmxml-2.0.0-master-2.0.xsd">
<omm id="CCSDS_OMM_VERS" version="2.0">
<header><CREATION_DATE/><ORIGINATOR/></header><body><segment><metadata><OBJECT_NAME>ORBCOMM FM06</OBJECT_NAME><OBJECT_ID>1997-084G</OBJECT_ID><CENTER_NAME>EARTH</CENTER_NAME><REF_FRAME>TEME</REF_FRAME><TIME_SYSTEM>UTC</TIME_SYSTEM><MEAN_ELEMENT_THEORY>SGP4</MEAN_ELEMENT_THEORY></metadata><data><meanElements><EPOCH>2024-07-22T08:35:02.058144</EPOCH><MEAN_MOTION>14.43208660</MEAN_MOTION><ECCENTRICITY>.000298</ECCENTRICITY><INCLINATION>45.0136</INCLINATION><RA_OF_ASC_NODE>148.7331</RA_OF_ASC_NODE><ARG_OF_PERICENTER>1.8340</ARG_OF_PERICENTER><MEAN_ANOMALY>140.5293</MEAN_ANOMALY></meanElements><tleParameters><EPHEMERIS_TYPE>0</EPHEMERIS_TYPE><CLASSIFICATION_TYPE>U</CLASSIFICATION_TYPE><NORAD_CAT_ID>25118</NORAD_CAT_ID><ELEMENT_SET_NO>999</ELEMENT_SET_NO><REV_AT_EPOCH>39382</REV_AT_EPOCH><BSTAR>.14224E-2</BSTAR><MEAN_MOTION_DOT>.4688E-4</MEAN_MOTION_DOT><MEAN_MOTION_DDOT>0</MEAN_MOTION_DDOT></tleParameters></data></segment></body></omm>
<omm id="CCSDS_OMM_VERS" version="2.0">
<header><CREATION_DATE/><ORIGINATOR/></header><body><segment><metadata><OBJECT_NAME>ORBCOMM FM07</OBJECT_NAME><OBJECT_ID>1997-084H</OBJECT_ID><CENTER_NAME>EARTH</CENTER_NAME><REF_FRAME>TEME</REF_FRAME><TIME_SYSTEM>UTC</TIME_SYSTEM><MEAN_ELEMENT_THEORY>SGP4</MEAN_ELEMENT_THEORY></metadata><data><meanElements><EPOCH>2024-07-22T06:10:01.582464</EPOCH><MEAN_MOTION>14.43105078</MEAN_MOTION><ECCENTRICITY>.0004606</ECCENTRICITY><INCLINATION>45.0131</INCLINATION><RA_OF_ASC_NODE>149.7992</RA_OF_ASC_NODE><ARG_OF_PERICENTER>349.8669</ARG_OF_PERICENTER><MEAN_ANOMALY>10.2088</MEAN_ANOMALY></meanElements><tleParameters><EPHEMERIS_TYPE>0</EPHEMERIS_TYPE><CLASSIFICATION_TYPE>U</CLASSIFICATION_TYPE><NORAD_CAT_ID>25119</NORAD_CAT_ID><ELEMENT_SET_NO>999</ELEMENT_SET_NO><REV_AT_EPOCH>39380</REV_AT_EPOCH><BSTAR>.12667E-2</BSTAR><MEAN_MOTION_DOT>.415E-4</MEAN_MOTION_DOT><MEAN_MOTION_DDOT>0</MEAN_MOTION_DDOT></tleParameters></data></segment></body></omm>
<omm id="CCSDS_OMM_VERS" version="2.0">
<header><CREATION_DATE/><ORIGINATOR/></header><body><segment><metadata><OBJECT_NAME>ORBCOMM FM03</OBJECT_NAME><OBJECT_ID>1998-007B</OBJECT_ID><CENTER_NAME>EARTH</CENTER_NAME><REF_FRAME>TEME</REF_FRAME><TIME_SYSTEM>UTC</TIME_SYSTEM><MEAN_ELEMENT_THEORY>SGP4</MEAN_ELEMENT_THEORY></metadata><data><meanElements><EPOCH>2024-07-22T13:44:41.798400</EPOCH><MEAN_MOTION>14.32474819</MEAN_MOTION><ECCENTRICITY>.0045441</ECCENTRICITY><INCLINATION>107.9697</INCLINATION><RA_OF_ASC_NODE>179.3312</RA_OF_ASC_NODE><ARG_OF_PERICENTER>104.4520</ARG_OF_PERICENTER><MEAN_ANOMALY>256.1667</MEAN_ANOMALY></meanElements><tleParameters><EPHEMERIS_TYPE>0</EPHEMERIS_TYPE><CLASSIFICATION_TYPE>U</CLASSIFICATION_TYPE><NORAD_CAT_ID>25158</NORAD_CAT_ID><ELEMENT_SET_NO>999</ELEMENT_SET_NO><REV_AT_EPOCH>37694</REV_AT_EPOCH><BSTAR>.13318E-2</BSTAR><MEAN_MOTION_DOT>.3526E-4</MEAN_MOTION_DOT><MEAN_MOTION_DDOT>0</MEAN_MOTION_DDOT></tleParameters></data></segment></body></omm>
<omm id="CCSDS_OMM_VERS" version="2.0">
<header><CREATION_DATE/><ORIGINATOR/></header><body><segment><metadata><OBJECT_NAME>ORBCOMM FM04</OBJECT_NAME><OBJECT_ID>1998-007C</OBJECT_ID><CENTER_NAME>EARTH</CENTER_NAME><REF_FRAME>TEME</REF_FRAME><TIME_SYSTEM>UTC</TIME_SYSTEM><MEAN_ELEMENT_THEORY>SGP4</MEAN_ELEMENT_THEORY></metadata><data><meanElements><EPOCH>2024-07-22T09:47:30.933888</EPOCH><MEAN_MOTION>14.32745711</MEAN_MOTION><ECCENTRICITY>.0041034</ECCENTRICITY><INCLINATION>107.9686</INCLINATION><RA_OF_ASC_NODE>181.9824</RA_OF_ASC_NODE><ARG_OF_PERICENTER>102.3468</ARG_OF_PERICENTER><MEAN_ANOMALY>258.2269</MEAN_ANOMALY></meanElements><tleParameters><EPHEMERIS_TYPE>0</EPHEMERIS_TYPE><CLASSIFICATION_TYPE>U</CLASSIFICATION_TYPE><NORAD_CAT_ID>25159</NORAD_CAT_ID><ELEMENT_SET_NO>999</ELEMENT_SET_NO><REV_AT_EPOCH>37695</REV_AT_EPOCH><BSTAR>.11916E-2</BSTAR><MEAN_MOTION_DOT>.3151E-4</MEAN_MOTION_DOT><MEAN_MOTION_DDOT>0</MEAN_MOTION_DDOT></tleParameters></data></segment></body></omm>
<omm id="CCSDS_OMM_VERS" version="2.0">
<header><CREATION_DATE/><ORIGINATOR/></header><body><segment><metadata><OBJECT_NAME>ORBCOMM FM18</OBJECT_NAME><OBJECT_ID>1998-046B</OBJECT_ID><CENTER_NAME>EARTH</CENTER_NAME><REF_FRAME>TEME</REF_FRAME><TIME_SYSTEM>UTC</TIME_SYSTEM><MEAN_ELEMENT_THEORY>SGP4</MEAN_ELEMENT_THEORY></metadata><data><meanElements><EPOCH>2024-07-22T12:44:12.220800</EPOCH><MEAN_MOTION>14.36260758</MEAN_MOTION><ECCENTRICITY>.0001777</ECCENTRICITY><INCLINATION>44.9939</INCLINATION><RA_OF_ASC_NODE>297.1197</RA_OF_ASC_NODE><ARG_OF_PERICENTER>57.2102</ARG_OF_PERICENTER><MEAN_ANOMALY>302.8916</MEAN_ANOMALY></meanElements><tleParameters><EPHEMERIS_TYPE>0</EPHEMERIS_TYPE><CLASSIFICATION_TYPE>U</CLASSIFICATION_TYPE><NORAD_CAT_ID>25414</NORAD_CAT_ID><ELEMENT_SET_NO>999</ELEMENT_SET_NO><REV_AT_EPOCH>35681</REV_AT_EPOCH><BSTAR>.10338E-2</BSTAR><MEAN_MOTION_DOT>.2907E-4</MEAN_MOTION_DOT><MEAN_MOTION_DDOT>0</MEAN_MOTION_DDOT></tleParameters></data></segment></body></omm>
<omm id="CCSDS_OMM_VERS" version="2.0">
<header><CREATION_DATE/><ORIGINATOR/></header><body><segment><metadata><OBJECT_NAME>ORBCOMM FM19</OBJECT_NAME><OBJECT_ID>1998-046C</OBJECT_ID><CENTER_NAME>EARTH</CENTER_NAME><REF_FRAME>TEME</REF_FRAME><TIME_SYSTEM>UTC</TIME_SYSTEM><MEAN_ELEMENT_THEORY>SGP4</MEAN_ELEMENT_THEORY></metadata><data><meanElements><EPOCH>2024-07-22T14:12:54.940320</EPOCH><MEAN_MOTION>14.36094105</MEAN_MOTION><ECCENTRICITY>.0000773</ECCENTRICITY><INCLINATION>44.9949</INCLINATION><RA_OF_ASC_NODE>298.3388</RA_OF_ASC_NODE><ARG_OF_PERICENTER>19.8041</ARG_OF_PERICENTER><MEAN_ANOMALY>70.6751</MEAN_ANOMALY></meanElements><tleParameters><EPHEMERIS_TYPE>0</EPHEMERIS_TYPE><CLASSIFICATION_TYPE>U</CLASSIFICATION_TYPE><NORAD_CAT_ID>25415</NORAD_CAT_ID><ELEMENT_SET_NO>999</ELEMENT_SET_NO><REV_AT_EPOCH>35678</REV_AT_EPOCH><BSTAR>.10732E-2</BSTAR><MEAN_MOTION_DOT>.3012E-4</MEAN_MOTION_DOT><MEAN_MOTION_DDOT>0</MEAN_MOTION_DDOT></tleParameters></data></segment></body></omm>

</ndm>
