ORBCOMM FM06            
1 25118U 97084G   24204.35766271  .00004688  00000+0  14224-2 0  9994
2 25118  45.0136 148.7331 0002980   1.8340 140.5293 14.43208660393823
ORBCOMM FM07            
1 25119U 97084H   24204.25696276  .00004150  00000+0  12667-2 0  9994
2 25119  45.0131 149.7992 0004606 349.8669  10.2088 14.43105078393801
ORBCOMM FM03            
1 25158U 98007B   24204.57270600  .00003526  00000+0  13318-2 0  9997
2 25158 107.9697 179.3312 0045441 104.4520 256.1667 14.32474819376802
ORBCOMM FM04            
1 25159U 98007C   24204.40799692  .00003151  00000+0  11916-2 0  9993
2 25159 107.9686 181.9824 0041034 102.3468 258.2269 14.32745711376959
ORBCOMM FM18            
1 25414U 98046B   24204.53069700  .00002907  00000+0  10338-2 0  9999
2 25414  44.9939 297.1197 0001777  57.2102 302.8916 14.36260758356815
ORBCOMM FM19            
1 25415U 98046C   24204.59230255  .00003012  00000+0  10732-2 0  9997
2 25415  44.9949 298.3388 0000773  19.8041  70.6751 14.36094105356787
